{"fetched_at":"2026-03-29T02:12:04Z","count":15717,"tles":[{"name":"STARLINK-30831","line1":"1 58153U 23166D   26087.53874426  .00001149  00000+0  50939-4 0  9996","line2":"2 58153  53.1599 132.1696 0001128  80.4704 279.6425 15.30188384136061","category":"Starlink"}]}